NORAD_CAT_ID,OBJECT_NAME,OBJECT_TYPE,EPOCH,MEAN_MOTION,ECCENTRICITY,INCLINATION,RA_OF_ASC_NODE,ARG_OF_PERICENTER,MEAN_ANOMALY,BSTAR,MEAN_MOTION_DOT,MEAN_MOTION_DDOT,TLE_LINE0,TLE_LINE1,TLE_LINE2,SEMIMAJOR_AXIS,PERIOD,APOGEE,PERIGEE,DECAYED
56451.0,STARLINK-5985,PAYLOAD,2024-01-25 03:39:46,14.98341089,0.0002269,70.0022,297.5142,239.3011,120.7924,5.8396e-05,6.04e-06,0.0,0 STARLINK-5985,1 56451U 23064D   24025.15261936  .00000604  00000-0  58396-4 0  9997,2 56451  70.0022 297.5142 0002269 239.3011 120.7924 14.98341089 39589,6950.159,96.106,573.601,570.447,0.0
56451.0,STARLINK-5985,PAYLOAD,2024-01-25 19:41:07,14.98325992,0.0002959,70.0025,295.8352,215.6073,144.4889,-3.3457e-05,-4.92e-06,0.0,0 STARLINK-5985,1 56451U 23064D   24025.82022916 -.00000492  00000-0 -33457-4 0  9992,2 56451  70.0025 295.8352 0002959 215.6073 144.4889 14.98325992 39686,6950.205,96.107,574.127,570.014,0.0
56451.0,STARLINK-5985,PAYLOAD,2024-01-25 22:53:24,14.98323318,0.0002852,70.0023,295.4987,224.8472,135.2457,-6.4749e-05,-8.65e-06,0.0,0 STARLINK-5985,1 56451U 23064D   24025.95375142 -.00000865  00000-0 -64749-4 0  9990,2 56451  70.0023 295.4987 0002852 224.8472 135.2457 14.98323318 39343,6950.214,96.107,574.061,570.096,0.0
56451.0,STARLINK-5985,PAYLOAD,2024-01-26 03:41:48,14.98317461,0.0002402,70.0021,294.9901,233.4702,126.6237,-0.00011824,-1.503e-05,0.0,0 STARLINK-5985,1 56451U 23064D   24026.15403893 -.00001503  00000-0 -11824-3 0  9993,2 56451  70.0021 294.9901 0002402 233.4702 126.6237 14.98317461 39739,6950.232,96.108,573.766,570.427,0.0
56451.0,STARLINK-5985,PAYLOAD,2024-01-26 19:43:08,14.98339287,0.0003132,69.999,293.303,268.4484,91.6316,-0.00011935,-1.517e-05,0.0,0 STARLINK-5985,1 56451U 23064D   24026.82162710 -.00001517  00000-0 -11935-3 0  9995,2 56451  69.9990 293.3030 0003132 268.4484  91.6316 14.98339287 39833,6950.164,96.106,574.206,569.852,0.0
56451.0,STARLINK-5985,PAYLOAD,2024-01-27 03:43:48,14.98343255,0.0002842,69.9996,292.4625,259.6315,100.4524,-1.9654e-05,-3.28e-06,0.0,0 STARLINK-5985,1 56451U 23064D   24027.15541940 -.00000328  00000-0 -19654-4 0  9994,2 56451  69.9996 292.4625 0002842 259.6315 100.4524 14.98343255 39886,6950.152,96.106,573.992,570.042,0.0
56451.0,STARLINK-5985,PAYLOAD,2024-01-27 19:45:09,14.98324352,0.0002658,70.0,290.7803,249.0215,111.0659,9.1286e-05,9.96e-06,0.0,0 STARLINK-5985,1 56451U 23064D   24027.82302760  .00000996  00000-0  91286-4 0  9993,2 56451  70.0000 290.7803 0002658 249.0215 111.0659 14.98324352 39986,6950.21,96.107,573.923,570.228,0.0
56451.0,STARLINK-5985,PAYLOAD,2024-01-27 21:21:17,14.98324494,0.0002654,70.0,290.6119,249.1028,110.9847,9.0517e-05,9.87e-06,0.0,0 STARLINK-5985,1 56451U 23064D   24027.88978763  .00000987  00000-0  90517-4 0  9997,2 56451  70.0000 290.6119 0002654 249.1028 110.9847 14.98324494 39630,6950.21,96.107,573.92,570.23,0.0
56451.0,STARLINK-5985,PAYLOAD,2024-01-28 03:45:49,14.98326085,0.0002623,70.0001,289.9386,249.7313,110.3564,9.9083e-05,1.089e-05,0.0,0 STARLINK-5985,1 56451U 23064D   24028.15682705  .00001089  00000-0  99083-4 0  9997,2 56451  70.0001 289.9386 0002623 249.7313 110.3564 14.98326085 39679,6950.205,96.107,573.893,570.247,0.0
56451.0,STARLINK-5985,PAYLOAD,2024-01-28 19:47:10,14.98331885,0.0002452,70.0003,288.2554,246.9693,113.1207,-2.9812e-05,-4.49e-06,0.0,0 STARLINK-5985,1 56451U 23064D   24028.82442732 -.00000449  00000-0 -29812-4 0  9999,2 56451  70.0003 288.2554 0002452 246.9693 113.1207 14.98331885 40132,6950.187,96.107,573.756,570.348,0.0
56451.0,STARLINK-5985,PAYLOAD,2024-01-28 21:23:18,14.98332066,0.0002437,70.0004,288.087,247.7814,112.3087,-2.5409e-05,-3.96e-06,0.0,0 STARLINK-5985,1 56451U 23064D   24028.89118702 -.00000396  00000-0 -25409-4 0  9992,2 56451  70.0004 288.0870 0002437 247.7814 112.3087 14.98332066 39787,6950.187,96.107,573.745,570.358,0.0
56451.0,STARLINK-5985,PAYLOAD,2024-01-29 03:47:48,14.98364649,0.0002404,70.0002,287.4136,255.3151,104.7742,0.00033334,3.89e-05,0.0,0 STARLINK-5985,1 56451U 23064D   24029.15819666  .00003890  00000-0  33334-3 0  9994,2 56451  70.0002 287.4136 0002404 255.3151 104.7742 14.98364649 40187,6950.086,96.105,573.622,570.28,0.0
56451.0,STARLINK-5985,PAYLOAD,2024-01-29 16:36:52,14.98359751,0.0002296,70.0009,286.0681,251.6771,108.4138,0.00030868,3.595e-05,0.0,0 STARLINK-5985,1 56451U 23064D   24029.69227079  .00003595  00000-0  30868-3 0  9995,2 56451  70.0009 286.0681 0002296 251.6771 108.4138 14.98359751 40267,6950.101,96.105,573.562,570.37,0.0
56451.0,STARLINK-5985,PAYLOAD,2024-01-30 02:13:43,14.98317426,0.0002635,70.0001,285.0563,265.9911,94.0947,-0.00016451,-2.055e-05,0.0,0 STARLINK-5985,1 56451U 23064D   24030.09286857 -.00002055  00000-0 -16451-3 0  9994,2 56451  70.0001 285.0563 0002635 265.9911  94.0947 14.98317426 40326,6950.232,96.108,573.928,570.265,0.0
56451.0,STARLINK-5985,PAYLOAD,2024-01-30 23:03:28,14.98323176,0.0003055,69.9983,282.8658,268.0088,92.0721,-0.00013225,-1.67e-05,0.0,0 STARLINK-5985,1 56451U 23064D   24030.96074710 -.00001670  00000-0 -13225-3 0  9991,2 56451  69.9983 282.8658 0003055 268.0088  92.0721 14.98323176 40099,6950.214,96.107,574.202,569.956,0.0
56451.0,STARLINK-5985,PAYLOAD,2024-01-31 02:15:44,14.9832553,0.0002915,69.9987,282.5301,263.6757,96.407,-9.8845e-05,-1.272e-05,0.0,0 STARLINK-5985,1 56451U 23064D   24031.09426469 -.00001272  00000-0 -98845-4 0  9998,2 56451  69.9987 282.5301 0002915 263.6757  96.4070 14.98325530 40476,6950.207,96.107,574.098,570.046,0.0
56451.0,STARLINK-5985,PAYLOAD,2024-01-31 16:40:56,14.98313933,0.0002987,69.9985,281.0151,265.6472,94.4346,0.00011431,1.271e-05,0.0,0 STARLINK-5985,1 56451U 23064D   24031.69510286  .00001271  00000-0  11431-3 0  9997,2 56451  69.9985 281.0151 0002987 265.6472  94.4346 14.98313933 40205,6950.243,96.108,574.184,570.032,0.0
56451.0,STARLINK-5985,PAYLOAD,2024-02-01 02:17:45,14.98317347,0.0002915,69.9986,280.0052,263.1832,96.8996,0.00014153,1.596e-05,0.0,0 STARLINK-5985,1 56451U 23064D   24032.09566361  .00001596  00000-0  14153-3 0  9991,2 56451  69.9986 280.0052 0002915 263.1832  96.8996 14.98317347 40625,6950.232,96.108,574.123,570.071,0.0
56451.0,STARLINK-5985,PAYLOAD,2024-02-01 15:06:49,14.98325298,0.0002953,69.9983,278.6586,262.2813,97.8011,7.9408e-05,8.54e-06,0.0,0 STARLINK-5985,1 56451U 23064D   24032.62974373  .00000854  00000-0  79408-4 0  9997,2 56451  69.9983 278.6586 0002953 262.2813  97.8011 14.98325298 40340,6950.207,96.107,574.125,570.02,0.0
56451.0,STARLINK-5985,PAYLOAD,2024-02-01 16:42:57,14.98326756,0.0002923,69.9984,278.4914,262.6993,97.3834,9.6839e-05,1.063e-05,0.0,0 STARLINK-5985,1 56451U 23064D   24032.69650247  .00001063  00000-0  96839-4 0  9995,2 56451  69.9984 278.4914 0002923 262.6993  97.3834 14.98326756 40713,6950.203,96.107,574.099,570.036,0.0
56451.0,STARLINK-5985,PAYLOAD,2024-02-02 15:08:50,14.98328209,0.000284,69.9983,276.1362,256.5233,103.561,2.7211e-05,2.32e-06,0.0,0 STARLINK-5985,1 56451U 23064D   24033.63114447  .00000232  00000-0  27211-4 0  9992,2 56451  69.9983 276.1362 0002840 256.5233 103.5610 14.98328209 40493,6950.198,96.107,574.037,570.09,0.0
56451.0,STARLINK-5985,PAYLOAD,2024-02-02 19:57:15,14.98325114,0.0002723,69.9989,275.629,263.5436,96.5413,8.5317e-06,9e-08,0.0,0 STARLINK-5985,1 56451U 23064D   24033.83142797  .00000009  00000-0  85317-5 0  9997,2 56451  69.9989 275.6290 0002723 263.5436  96.5413 14.98325114 40883,6950.208,96.107,573.966,570.18,0.0
56451.0,STARLINK-5985,PAYLOAD,2024-02-02 21:33:23,14.98324962,0.0002722,69.9989,275.4606,263.2116,96.8733,6.4023e-06,-1.7e-07,0.0,0 STARLINK-5985,1 56451U 23064D   24033.89818826 -.00000017  00000-0  64023-5 0  9997,2 56451  69.9989 275.4606 0002722 263.2116  96.8733 14.98324962 40533,6950.208,96.107,573.965,570.182,0.0
56451.0,STARLINK-5985,PAYLOAD,2024-02-03 02:21:47,14.9832411,0.0002751,69.9988,274.9557,264.0511,96.0335,-7.099e-06,-1.78e-06,0.0,0 STARLINK-5985,1 56451U 23064D   24034.09846982 -.00000178  00000-0 -70990-5 0  9993,2 56451  69.9988 274.9557 0002751 264.0511  96.0335 14.98324110 40569,6950.211,96.107,573.988,570.164,0.0
56451.0,STARLINK-5985,PAYLOAD,2024-02-03 19:59:15,14.98334661,0.0002803,69.9988,273.1041,268.621,91.4628,5.0436e-06,-3.3e-07,0.0,0 STARLINK-5985,1 56451U 23064D   24034.83282290 -.00000033  00000-0  50436-5 0  9993,2 56451  69.9988 273.1041 0002803 268.6210  91.4628 14.98334661 41031,6950.178,96.107,573.992,570.095,0.0
56451.0,STARLINK-5985,PAYLOAD,2024-02-03 21:35:24,14.98333897,0.0002813,69.9987,272.9357,268.1437,91.9399,-4.1404e-06,-1.42e-06,0.0,0 STARLINK-5985,1 56451U 23064D   24034.89958338 -.00000142  00000-0 -41404-5 0  9999,2 56451  69.9987 272.9357 0002813 268.1437  91.9399 14.98333897 40684,6950.181,96.107,574.001,570.091,0.0
56451.0,STARLINK-5985,PAYLOAD,2024-02-04 08:48:19,14.98336023,0.0002851,69.9984,271.7577,261.2265,98.8571,5.9226e-05,6.14e-06,0.0,0 STARLINK-5985,1 56451U 23064D   24035.36689796  .00000614  00000-0  59226-4 0  9993,2 56451  69.9984 271.7577 0002851 261.2265  98.8571 14.98336023 40757,6950.174,96.107,574.021,570.058,0.0
56451.0,STARLINK-5985,PAYLOAD,2024-02-04 20:01:17,14.98326419,0.0003276,69.9978,270.5787,274.5646,85.5138,2.1091e-05,1.59e-06,0.0,0 STARLINK-5985,1 56451U 23064D   24035.83422576  .00000159  00000-0  21091-4 0  9999,2 56451  69.9978 270.5787 0003276 274.5646  85.5138 14.98326419 41180,6950.204,96.107,574.346,569.792,0.0
56451.0,STARLINK-5985,PAYLOAD,2024-02-04 21:37:25,14.9832729,0.000354,69.9971,270.4093,278.3054,81.7704,1.0182e-05,2.8e-07,0.0,0 STARLINK-5985,1 56451U 23064D   24035.90098556  .00000028  00000-0  10182-4 0  9998,2 56451  69.9971 270.4093 0003540 278.3054  81.7704 14.98327290 40837,6950.201,96.107,574.527,569.606,0.0
56451.0,STARLINK-5985,PAYLOAD,2024-02-05 08:50:21,14.98331653,0.0002864,69.9981,269.2322,269.9727,90.1104,2.3882e-05,1.92e-06,0.0,0 STARLINK-5985,1 56451U 23064D   24036.36830182  .00000192  00000-0  23882-4 0  9991,2 56451  69.9981 269.2322 0002864 269.9727  90.1104 14.98331653 40904,6950.188,96.107,574.043,570.062,0.0
